{
  "norad_id": 53709,
  "name": "STARLINK-4685",
  "history": [
    {
      "epoch": "2026-03-28T11:17:49.524576",
      "apogee_km": 540.6219181894776,
      "perigee_km": 538.8312983731103,
      "latitude_deg": 53.09724618870547,
      "longitude_deg": -43.91163936024532,
      "semi_major_axis_km": 6917.863608281294,
      "eccentricity": 0.00012942,
      "inclination_deg": 53.2157,
      "raan_deg": 164.5046,
      "arg_perigee_deg": 87.7839,
      "mean_anomaly_deg": 272.3301,
      "mean_motion_rev_day": 15.0884549
    }
  ]
}