{"fetched_at":"2026-03-29T16:36:15Z","count":15609,"tles":[{"name":"STARLINK-4685","line1":"1 53709U 22107K   26087.47071209  .00003188  00000+0  21825-3 0  9999","line2":"2 53709  53.2157 164.5046 0001294  87.7839 272.3301 15.08845490197316","category":"Starlink"}]}